ONEWEB-0656             
1 55817U 23029X   26110.25012969  .00000023  00000+0  23657-4 0  9997
2 55817  87.9135 285.9923 0001626 107.7881 252.3430 13.20772306153500
ONEWEB-0657             
1 55818U 23029Y   26110.07313031  .00000032  00000+0  46564-4 0  9994
2 55818  87.9167 316.5655 0001052  83.9817 276.1435 13.19724269151247
ONEWEB-0658             
1 55819U 23029Z   26110.06839018  .00000110  00000+0  24204-3 0  9995
2 55819  87.9168 316.5369 0001981  75.1527 284.9826 13.19723856151256
ONEWEB-0660             
1 55820U 23029AA  26110.27714407  .00000159  00000+0  39405-3 0  9996
2 55820  87.8927 301.2549 0002092  89.6630 270.4740 13.14503610151793
ONEWEB-0661             
1 55821U 23029AB  26109.93144337 -.00000168  00000+0 -48753-3 0  9995
2 55821  87.8920 301.3752 0002032  92.8033 267.3329 13.14502264151737
ONEWEB-0662             
1 55822U 23029AC  26110.27080059  .00000059  00000+0  12376-3 0  9994
2 55822  87.8914 301.3153 0002085  89.3987 270.7381 13.14502601151824
ONEWEB-0663             
1 55823U 23029AD  26110.21259733  .00000041  00000+0  68802-4 0  9993
2 55823  87.9142 286.0729 0002181  86.2825 273.8558 13.20864838153496
ONEWEB-0664             
1 55824U 23029AE  26110.23752184 -.00000085  00000+0 -24117-3 0  9994
2 55824  87.9123 286.0554 0002154 101.9377 258.1998 13.20768498153498
ONEWEB-0665             
1 55825U 23029AF  26110.23273966 -.00000044  00000+0 -15242-3 0  9995
2 55825  87.8920 301.2960 0002060  86.6410 273.4956 13.14502042151796
ONEWEB-0666             
1 55826U 23029AG  26110.23118393 -.00000099  00000+0 -27521-3 0  9991
2 55826  87.9129 286.0464 0001065  98.4651 261.6604 13.20773960153506
ONEWEB-0667             
1 55827U 23029AH  26110.22488104 -.00000066  00000+0 -19442-3 0  9998
2 55827  87.9144 285.9955 0001967  93.6505 266.4853 13.20773348153490
ONEWEB-0669             
1 55828U 23029AJ  26109.91711527  .00000068  00000+0  13559-3 0  9994
2 55828  87.9125 286.0748 0001786 113.6983 246.4338 13.20773572153455
ONEWEB-0670             
1 55829U 23029AK  26110.28665973  .00000193  00000+0  48604-3 0  9998
2 55829  87.8916 301.3035 0002081  97.2384 262.8982 13.14501488151828
ONEWEB-0671             
1 55830U 23029AL  26110.06365182  .00000096  00000+0  20799-3 0  9992
2 55830  87.9161 316.5682 0001987  87.0239 273.1121 13.19724224151234
ONEWEB-0672             
1 55831U 23029AM  26110.21541685  .00000027  00000+0  33385-4 0  9994
2 55831  87.9139 286.0060 0001541  99.7728 260.3580 13.20769910153490
ONEWEB-0673             
1 55832U 23029AN  26110.26819155  .00000018  00000+0  13822-4 0  9994
2 55832  87.9173 316.5141 0001915  88.2612 271.8740 13.19725316151266
