[{"OBJECT_NAME":"ONEWEB-0656","OBJECT_ID":"2023-029X","EPOCH":"2026-04-20T06:00:11.205216","MEAN_MOTION":13.20772306,"ECCENTRICITY":0.0001626,"INCLINATION":87.9135,"RA_OF_ASC_NODE":285.9923,"ARG_OF_PERICENTER":107.7881,"MEAN_ANOMALY":252.343,"EPHEMERIS_TYPE":0,"CLASSIFICATION_TYPE":"U","NORAD_CAT_ID":55817,"ELEMENT_SET_NO":999,"REV_AT_EPOCH":15350,"BSTAR":2.3657e-05,"MEAN_MOTION_DOT":2.3e-07,"MEAN_MOTION_DDOT":0.0},{"OBJECT_NAME":"ONEWEB-0657","OBJECT_ID":"2023-029Y","EPOCH":"2026-04-20T01:45:18.458784","MEAN_MOTION":13.19724269,"ECCENTRICITY":0.0001052,"INCLINATION":87.9167,"RA_OF_ASC_NODE":316.5655,"ARG_OF_PERICENTER":83.9817,"MEAN_ANOMALY":276.1435,"EPHEMERIS_TYPE":0,"CLASSIFICATION_TYPE":"U","NORAD_CAT_ID":55818,"ELEMENT_SET_NO":999,"REV_AT_EPOCH":15124,"BSTAR":4.6564000000000003e-05,"MEAN_MOTION_DOT":3.2e-07,"MEAN_MOTION_DDOT":0.0},{"OBJECT_NAME":"ONEWEB-0658","OBJECT_ID":"2023-029Z","EPOCH":"2026-04-20T01:38:28.911552","MEAN_MOTION":13.19723856,"ECCENTRICITY":0.0001981,"INCLINATION":87.9168,"RA_OF_ASC_NODE":316.5369,"ARG_OF_PERICENTER":75.1527,"MEAN_ANOMALY":284.9826,"EPHEMERIS_TYPE":0,"CLASSIFICATION_TYPE":"U","NORAD_CAT_ID":55819,"ELEMENT_SET_NO":999,"REV_AT_EPOCH":15125,"BSTAR":0.00024204,"MEAN_MOTION_DOT":1.1e-06,"MEAN_MOTION_DDOT":0.0},{"OBJECT_NAME":"ONEWEB-0660","OBJECT_ID":"2023-029AA","EPOCH":"2026-04-20T06:39:05.247648","MEAN_MOTION":13.1450361,"ECCENTRICITY":0.0002092,"INCLINATION":87.8927,"RA_OF_ASC_NODE":301.2549,"ARG_OF_PERICENTER":89.663,"MEAN_ANOMALY":270.474,"EPHEMERIS_TYPE":0,"CLASSIFICATION_TYPE":"U","NORAD_CAT_ID":55820,"ELEMENT_SET_NO":999,"REV_AT_EPOCH":15179,"BSTAR":0.00039405,"MEAN_MOTION_DOT":1.59e-06,"MEAN_MOTION_DDOT":0.0},{"OBJECT_NAME":"ONEWEB-0661","OBJECT_ID":"2023-029AB","EPOCH":"2026-04-19T22:21:16.707168","MEAN_MOTION":13.14502264,"ECCENTRICITY":0.0002032,"INCLINATION":87.892,"RA_OF_ASC_NODE":301.3752,"ARG_OF_PERICENTER":92.8033,"MEAN_ANOMALY":267.3329,"EPHEMERIS_TYPE":0,"CLASSIFICATION_TYPE":"U","NORAD_CAT_ID":55821,"ELEMENT_SET_NO":999,"REV_AT_EPOCH":15173,"BSTAR":-0.00048753,"MEAN_MOTION_DOT":-1.68e-06,"MEAN_MOTION_DDOT":0.0},{"OBJECT_NAME":"ONEWEB-0662","OBJECT_ID":"2023-029AC","EPOCH":"2026-04-20T06:29:57.170976","MEAN_MOTION":13.14502601,"ECCENTRICITY":0.0002085,"INCLINATION":87.8914,"RA_OF_ASC_NODE":301.3153,"ARG_OF_PERICENTER":89.3987,"MEAN_ANOMALY":270.7381,"EPHEMERIS_TYPE":0,"CLASSIFICATION_TYPE":"U","NORAD_CAT_ID":55822,"ELEMENT_SET_NO":999,"REV_AT_EPOCH":15182,"BSTAR":0.00012376,"MEAN_MOTION_DOT":5.9e-07,"MEAN_MOTION_DDOT":0.0},{"OBJECT_NAME":"ONEWEB-0663","OBJECT_ID":"2023-029AD","EPOCH":"2026-04-20T05:06:08.409312","MEAN_MOTION":13.20864838,"ECCENTRICITY":0.0002181,"INCLINATION":87.9142,"RA_OF_ASC_NODE":286.0729,"ARG_OF_PERICENTER":86.2825,"MEAN_ANOMALY":273.8558,"EPHEMERIS_TYPE":0,"CLASSIFICATION_TYPE":"U","NORAD_CAT_ID":55823,"ELEMENT_SET_NO":999,"REV_AT_EPOCH":15349,"BSTAR":6.8802e-05,"MEAN_MOTION_DOT":4.1e-07,"MEAN_MOTION_DDOT":0.0},{"OBJECT_NAME":"ONEWEB-0664","OBJECT_ID":"2023-029AE","EPOCH":"2026-04-20T05:42:01.886976","MEAN_MOTION":13.20768498,"ECCENTRICITY":0.0002154,"INCLINATION":87.9123,"RA_OF_ASC_NODE":286.0554,"ARG_OF_PERICENTER":101.9377,"MEAN_ANOMALY":258.1998,"EPHEMERIS_TYPE":0,"CLASSIFICATION_TYPE":"U","NORAD_CAT_ID":55824,"ELEMENT_SET_NO":999,"REV_AT_EPOCH":15349,"BSTAR":-0.00024117,"MEAN_MOTION_DOT":-8.5e-07,"MEAN_MOTION_DDOT":0.0},{"OBJECT_NAME":"ONEWEB-0665","OBJECT_ID":"2023-029AF","EPOCH":"2026-04-20T05:35:08.706624","MEAN_MOTION":13.14502042,"ECCENTRICITY":0.000206,"INCLINATION":87.892,"RA_OF_ASC_NODE":301.296,"ARG_OF_PERICENTER":86.641,"MEAN_ANOMALY":273.4956,"EPHEMERIS_TYPE":0,"CLASSIFICATION_TYPE":"U","NORAD_CAT_ID":55825,"ELEMENT_SET_NO":999,"REV_AT_EPOCH":15179,"BSTAR":-0.00015242,"MEAN_MOTION_DOT":-4.4e-07,"MEAN_MOTION_DDOT":0.0},{"OBJECT_NAME":"ONEWEB-0666","OBJECT_ID":"2023-029AG","EPOCH":"2026-04-20T05:32:54.291552","MEAN_MOTION":13.2077396,"ECCENTRICITY":0.0001065,"INCLINATION":87.9129,"RA_OF_ASC_NODE":286.0464,"ARG_OF_PERICENTER":98.4651,"MEAN_ANOMALY":261.6604,"EPHEMERIS_TYPE":0,"CLASSIFICATION_TYPE":"U","NORAD_CAT_ID":55826,"ELEMENT_SET_NO":999,"REV_AT_EPOCH":15350,"BSTAR":-0.00027521,"MEAN_MOTION_DOT":-9.9e-07,"MEAN_MOTION_DDOT":0.0},{"OBJECT_NAME":"ONEWEB-0667","OBJECT_ID":"2023-029AH","EPOCH":"2026-04-20T05:23:49.721856","MEAN_MOTION":13.20773348,"ECCENTRICITY":0.0001967,"INCLINATION":87.9144,"RA_OF_ASC_NODE":285.9955,"ARG_OF_PERICENTER":93.6505,"MEAN_ANOMALY":266.4853,"EPHEMERIS_TYPE":0,"CLASSIFICATION_TYPE":"U","NORAD_CAT_ID":55827,"ELEMENT_SET_NO":999,"REV_AT_EPOCH":15349,"BSTAR":-0.00019442000000000003,"MEAN_MOTION_DOT":-6.6e-07,"MEAN_MOTION_DDOT":0.0},{"OBJECT_NAME":"ONEWEB-0669","OBJECT_ID":"2023-029AJ","EPOCH":"2026-04-19T22:00:38.759328","MEAN_MOTION":13.20773572,"ECCENTRICITY":0.0001786,"INCLINATION":87.9125,"RA_OF_ASC_NODE":286.0748,"ARG_OF_PERICENTER":113.6983,"MEAN_ANOMALY":246.4338,"EPHEMERIS_TYPE":0,"CLASSIFICATION_TYPE":"U","NORAD_CAT_ID":55828,"ELEMENT_SET_NO":999,"REV_AT_EPOCH":15345,"BSTAR":0.00013559,"MEAN_MOTION_DOT":6.8e-07,"MEAN_MOTION_DDOT":0.0},{"OBJECT_NAME":"ONEWEB-0670","OBJECT_ID":"2023-029AK","EPOCH":"2026-04-20T06:52:47.400672","MEAN_MOTION":13.14501488,"ECCENTRICITY":0.0002081,"INCLINATION":87.8916,"RA_OF_ASC_NODE":301.3035,"ARG_OF_PERICENTER":97.2384,"MEAN_ANOMALY":262.8982,"EPHEMERIS_TYPE":0,"CLASSIFICATION_TYPE":"U","NORAD_CAT_ID":55829,"ELEMENT_SET_NO":999,"REV_AT_EPOCH":15182,"BSTAR":0.00048604000000000003,"MEAN_MOTION_DOT":1.93e-06,"MEAN_MOTION_DDOT":0.0},{"OBJECT_NAME":"ONEWEB-0671","OBJECT_ID":"2023-029AL","EPOCH":"2026-04-20T01:31:39.517248","MEAN_MOTION":13.19724224,"ECCENTRICITY":0.0001987,"INCLINATION":87.9161,"RA_OF_ASC_NODE":316.5682,"ARG_OF_PERICENTER":87.0239,"MEAN_ANOMALY":273.1121,"EPHEMERIS_TYPE":0,"CLASSIFICATION_TYPE":"U","NORAD_CAT_ID":55830,"ELEMENT_SET_NO":999,"REV_AT_EPOCH":15123,"BSTAR":0.00020799000000000002,"MEAN_MOTION_DOT":9.6e-07,"MEAN_MOTION_DDOT":0.0},{"OBJECT_NAME":"ONEWEB-0672","OBJECT_ID":"2023-029AM","EPOCH":"2026-04-20T05:10:12.015840","MEAN_MOTION":13.2076991,"ECCENTRICITY":0.0001541,"INCLINATION":87.9139,"RA_OF_ASC_NODE":286.006,"ARG_OF_PERICENTER":99.7728,"MEAN_ANOMALY":260.358,"EPHEMERIS_TYPE":0,"CLASSIFICATION_TYPE":"U","NORAD_CAT_ID":55831,"ELEMENT_SET_NO":999,"REV_AT_EPOCH":15349,"BSTAR":3.3385e-05,"MEAN_MOTION_DOT":2.7e-07,"MEAN_MOTION_DDOT":0.0},{"OBJECT_NAME":"ONEWEB-0673","OBJECT_ID":"2023-029AN","EPOCH":"2026-04-20T06:26:11.749920","MEAN_MOTION":13.19725316,"ECCENTRICITY":0.0001915,"INCLINATION":87.9173,"RA_OF_ASC_NODE":316.5141,"ARG_OF_PERICENTER":88.2612,"MEAN_ANOMALY":271.874,"EPHEMERIS_TYPE":0,"CLASSIFICATION_TYPE":"U","NORAD_CAT_ID":55832,"ELEMENT_SET_NO":999,"REV_AT_EPOCH":15126,"BSTAR":1.3822e-05,"MEAN_MOTION_DOT":1.8e-07,"MEAN_MOTION_DDOT":0.0}]